CCSDS_OMM_VERS = 2.0
CREATION_DATE  = 
ORIGINATOR     = 

OBJECT_NAME    = SL-14 R/B
OBJECT_ID      = 1991-042B
CENTER_NAME    = EARTH
REF_FRAME      = TEME
TIME_SYSTEM    = UTC
MEAN_ELEMENT_THEORY = SGP/SGP4

EPOCH          = 2026-03-04T11:46:38.050752
MEAN_MOTION    = 14.81823576
ECCENTRICITY   = .00156208
INCLINATION    = 82.4912
RA_OF_ASC_NODE = 225.0577
ARG_OF_PERICENTER = 257.1611
MEAN_ANOMALY   = 102.7858

EPHEMERIS_TYPE = 0
CLASSIFICATION_TYPE = U
NORAD_CAT_ID   = 21423
ELEMENT_SET_NO = 999
REV_AT_EPOCH   = 85230
BSTAR          = .86798866E-4
MEAN_MOTION_DOT = .71E-5
MEAN_MOTION_DDOT = 0

CCSDS_OMM_VERS = 2.0
CREATION_DATE  = 
ORIGINATOR     = 

OBJECT_NAME    = ERS-1
OBJECT_ID      = 1991-050A
CENTER_NAME    = EARTH
REF_FRAME      = TEME
TIME_SYSTEM    = UTC
MEAN_ELEMENT_THEORY = SGP/SGP4

EPOCH          = 2026-03-05T07:38:06.606528
MEAN_MOTION    = 14.39445398
ECCENTRICITY   = .00313758
INCLINATION    = 98.7886
RA_OF_ASC_NODE = 82.4429
ARG_OF_PERICENTER = 213.5718
MEAN_ANOMALY   = 146.3481

EPHEMERIS_TYPE = 0
CLASSIFICATION_TYPE = U
NORAD_CAT_ID   = 21574
ELEMENT_SET_NO = 999
REV_AT_EPOCH   = 81510
BSTAR          = .15255563E-3
MEAN_MOTION_DOT = .431E-5
MEAN_MOTION_DDOT = 0

CCSDS_OMM_VERS = 2.0
CREATION_DATE  = 
ORIGINATOR     = 

OBJECT_NAME    = ARIANE 40 R/B
OBJECT_ID      = 1991-050F
CENTER_NAME    = EARTH
REF_FRAME      = TEME
TIME_SYSTEM    = UTC
MEAN_ELEMENT_THEORY = SGP/SGP4

EPOCH          = 2026-03-05T04:06:52.962048
MEAN_MOTION    = 14.42889712
ECCENTRICITY   = .00043501
INCLINATION    = 98.2021
RA_OF_ASC_NODE = 116.5773
ARG_OF_PERICENTER = 91.1191
MEAN_ANOMALY   = 269.0498

EPHEMERIS_TYPE = 0
CLASSIFICATION_TYPE = U
NORAD_CAT_ID   = 21610
ELEMENT_SET_NO = 999
REV_AT_EPOCH   = 81834
BSTAR          = .12872981E-3
MEAN_MOTION_DOT = .388E-5
MEAN_MOTION_DDOT = 0

CCSDS_OMM_VERS = 2.0
CREATION_DATE  = 
ORIGINATOR     = 

OBJECT_NAME    = INTERCOSMOS 25
OBJECT_ID      = 1991-086A
CENTER_NAME    = EARTH
REF_FRAME      = TEME
TIME_SYSTEM    = UTC
MEAN_ELEMENT_THEORY = SGP/SGP4

EPOCH          = 2026-03-05T02:48:46.150848
MEAN_MOTION    = 12.11984914
ECCENTRICITY   = .14870088
INCLINATION    = 82.6060
RA_OF_ASC_NODE = 312.7721
ARG_OF_PERICENTER = 126.7821
MEAN_ANOMALY   = 247.9227

EPHEMERIS_TYPE = 0
CLASSIFICATION_TYPE = U
NORAD_CAT_ID   = 21819
ELEMENT_SET_NO = 999
REV_AT_EPOCH   = 49613
BSTAR          = .29089958E-3
MEAN_MOTION_DOT = .1519E-4
MEAN_MOTION_DDOT = 0

CCSDS_OMM_VERS = 2.0
CREATION_DATE  = 
ORIGINATOR     = 

OBJECT_NAME    = SL-8 R/B
OBJECT_ID      = 1992-008B
CENTER_NAME    = EARTH
REF_FRAME      = TEME
TIME_SYSTEM    = UTC
MEAN_ELEMENT_THEORY = SGP/SGP4

EPOCH          = 2026-03-05T07:24:27.657216
MEAN_MOTION    = 13.75969739
ECCENTRICITY   = .00353318
INCLINATION    = 82.9227
RA_OF_ASC_NODE = 271.0382
ARG_OF_PERICENTER = 145.2580
MEAN_ANOMALY   = 27.6739

EPHEMERIS_TYPE = 0
CLASSIFICATION_TYPE = U
NORAD_CAT_ID   = 21876
ELEMENT_SET_NO = 999
REV_AT_EPOCH   = 70881
BSTAR          = -.14004348E-4
MEAN_MOTION_DOT = .2E-7
MEAN_MOTION_DDOT = 0

CCSDS_OMM_VERS = 2.0
CREATION_DATE  = 
ORIGINATOR     = 

OBJECT_NAME    = SL-8 R/B
OBJECT_ID      = 1992-020B
CENTER_NAME    = EARTH
REF_FRAME      = TEME
TIME_SYSTEM    = UTC
MEAN_ELEMENT_THEORY = SGP/SGP4

EPOCH          = 2026-03-05T05:57:55.639296
MEAN_MOTION    = 13.75548966
ECCENTRICITY   = .00278234
INCLINATION    = 82.9341
RA_OF_ASC_NODE = 157.0582
ARG_OF_PERICENTER = 311.7297
MEAN_ANOMALY   = 76.8862

EPHEMERIS_TYPE = 0
CLASSIFICATION_TYPE = U
NORAD_CAT_ID   = 21938
ELEMENT_SET_NO = 999
REV_AT_EPOCH   = 70052
BSTAR          = .98431706E-4
MEAN_MOTION_DOT = .11E-5
MEAN_MOTION_DDOT = 0

CCSDS_OMM_VERS = 2.0
CREATION_DATE  = 
ORIGINATOR     = 

OBJECT_NAME    = USA 81
OBJECT_ID      = 1992-023A
CENTER_NAME    = EARTH
REF_FRAME      = TEME
TIME_SYSTEM    = UTC
MEAN_ELEMENT_THEORY = SGP/SGP4

EPOCH          = 2026-03-05T06:11:11.072256
MEAN_MOTION    = 14.32366321
ECCENTRICITY   = .0002592
INCLINATION    = 85.0093
RA_OF_ASC_NODE = 133.9978
ARG_OF_PERICENTER = 81.0892
MEAN_ANOMALY   = 279.0593

EPHEMERIS_TYPE = 0
CLASSIFICATION_TYPE = U
NORAD_CAT_ID   = 21949
ELEMENT_SET_NO = 999
REV_AT_EPOCH   = 9415
BSTAR          = .82263339E-4
MEAN_MOTION_DOT = .242E-5
MEAN_MOTION_DDOT = 0

CCSDS_OMM_VERS = 2.0
CREATION_DATE  = 
ORIGINATOR     = 

OBJECT_NAME    = COSMOS 2219
OBJECT_ID      = 1992-076A
CENTER_NAME    = EARTH
REF_FRAME      = TEME
TIME_SYSTEM    = UTC
MEAN_ELEMENT_THEORY = SGP/SGP4

EPOCH          = 2026-03-05T04:56:36.557952
MEAN_MOTION    = 14.14090442
ECCENTRICITY   = .00192601
INCLINATION    = 71.0624
RA_OF_ASC_NODE = 27.4398
ARG_OF_PERICENTER = 213.0513
MEAN_ANOMALY   = 146.9408

EPHEMERIS_TYPE = 0
CLASSIFICATION_TYPE = U
NORAD_CAT_ID   = 22219
ELEMENT_SET_NO = 999
REV_AT_EPOCH   = 71774
BSTAR          = .17237016E-3
MEAN_MOTION_DOT = .282E-5
MEAN_MOTION_DDOT = 0

CCSDS_OMM_VERS = 2.0
CREATION_DATE  = 
ORIGINATOR     = 

OBJECT_NAME    = SL-16 R/B
OBJECT_ID      = 1992-076B
CENTER_NAME    = EARTH
REF_FRAME      = TEME
TIME_SYSTEM    = UTC
MEAN_ELEMENT_THEORY = SGP/SGP4

EPOCH          = 2026-03-05T07:26:36.758688
MEAN_MOTION    = 14.16860264
ECCENTRICITY   = .00105395
INCLINATION    = 71.0001
RA_OF_ASC_NODE = 197.5979
ARG_OF_PERICENTER = 104.4726
MEAN_ANOMALY   = 269.5242

EPHEMERIS_TYPE = 0
CLASSIFICATION_TYPE = U
NORAD_CAT_ID   = 22220
ELEMENT_SET_NO = 999
REV_AT_EPOCH   = 72121
BSTAR          = .10507332E-4
MEAN_MOTION_DOT = -.27E-6
MEAN_MOTION_DDOT = 0

CCSDS_OMM_VERS = 2.0
CREATION_DATE  = 
ORIGINATOR     = 

OBJECT_NAME    = COSMOS 2221
OBJECT_ID      = 1992-080A
CENTER_NAME    = EARTH
REF_FRAME      = TEME
TIME_SYSTEM    = UTC
MEAN_ELEMENT_THEORY = SGP/SGP4

EPOCH          = 2026-03-05T02:09:05.324544
MEAN_MOTION    = 14.96179779
ECCENTRICITY   = .00136135
INCLINATION    = 82.5014
RA_OF_ASC_NODE = 283.4884
ARG_OF_PERICENTER = 203.1320
MEAN_ANOMALY   = 156.9291

EPHEMERIS_TYPE = 0
CLASSIFICATION_TYPE = U
NORAD_CAT_ID   = 22236
ELEMENT_SET_NO = 999
REV_AT_EPOCH   = 78010
BSTAR          = .21568506E-3
MEAN_MOTION_DOT = .2459E-4
MEAN_MOTION_DDOT = 0

CCSDS_OMM_VERS = 2.0
CREATION_DATE  = 
ORIGINATOR     = 

OBJECT_NAME    = SL-16 R/B
OBJECT_ID      = 1992-093B
CENTER_NAME    = EARTH
REF_FRAME      = TEME
TIME_SYSTEM    = UTC
MEAN_ELEMENT_THEORY = SGP/SGP4

EPOCH          = 2026-03-05T06:53:41.088768
MEAN_MOTION    = 14.15449250
ECCENTRICITY   = .00063444
INCLINATION    = 71.0239
RA_OF_ASC_NODE = 13.5066
ARG_OF_PERICENTER = 298.3352
MEAN_ANOMALY   = 61.7131

EPHEMERIS_TYPE = 0
CLASSIFICATION_TYPE = U
NORAD_CAT_ID   = 22285
ELEMENT_SET_NO = 999
REV_AT_EPOCH   = 71253
BSTAR          = -.60805185E-4
MEAN_MOTION_DOT = -.166E-5
MEAN_MOTION_DDOT = 0

CCSDS_OMM_VERS = 2.0
CREATION_DATE  = 
ORIGINATOR     = 

OBJECT_NAME    = COSMOS 2228
OBJECT_ID      = 1992-094A
CENTER_NAME    = EARTH
REF_FRAME      = TEME
TIME_SYSTEM    = UTC
MEAN_ELEMENT_THEORY = SGP/SGP4

EPOCH          = 2026-03-05T04:13:16.442400
MEAN_MOTION    = 14.97163868
ECCENTRICITY   = .0017076
INCLINATION    = 82.5147
RA_OF_ASC_NODE = 241.6332
ARG_OF_PERICENTER = 320.7773
MEAN_ANOMALY   = 39.2211

EPHEMERIS_TYPE = 0
CLASSIFICATION_TYPE = U
NORAD_CAT_ID   = 22286
ELEMENT_SET_NO = 999
REV_AT_EPOCH   = 77538
BSTAR          = .29419835E-3
MEAN_MOTION_DOT = .3433E-4
MEAN_MOTION_DDOT = 0

