SL-14 R/B               
1 21423U 91042B   26063.49071818  .00000710  00000+0  86799-4 0  9993
2 21423  82.4912 225.0577 0015620 257.1611 102.7858 14.81823576852309
ERS-1                   
1 21574U 91050A   26064.31813202  .00000431  00000+0  15256-3 0  9991
2 21574  98.7886  82.4429 0031375 213.5718 146.3481 14.39445398815104
ARIANE 40 R/B           
1 21610U 91050F   26064.17144632  .00000388  00000+0  12873-3 0  9993
2 21610  98.2021 116.5773 0004350  91.1191 269.0498 14.42889712818346
INTERCOSMOS 25          
1 21819U 91086A   26064.11720082  .00001519  00000+0  29090-3 0  9992
2 21819  82.6060 312.7721 1487008 126.7821 247.9227 12.11984914496139
SL-8 R/B                
1 21876U 92008B   26064.30865344  .00000002  00000+0 -14004-4 0  9999
2 21876  82.9227 271.0382 0035331 145.2580  27.6739 13.75969739708816
SL-8 R/B                
1 21938U 92020B   26064.24856064  .00000110  00000+0  98432-4 0  9990
2 21938  82.9341 157.0582 0027823 311.7297  76.8862 13.75548966700527
USA 81                  
1 21949U 92023A   26064.25776704  .00000242  00000+0  82263-4 0  9999
2 21949  85.0093 133.9978 0002592  81.0892 279.0593 14.32366321 94153
COSMOS 2219             
1 22219U 92076A   26064.20597868  .00000282  00000+0  17237-3 0  9997
2 22219  71.0624  27.4398 0019260 213.0513 146.9408 14.14090442717741
SL-16 R/B               
1 22220U 92076B   26064.31014767 -.00000027  00000+0  10507-4 0  9995
2 22220  71.0001 197.5979 0010539 104.4726 269.5242 14.16860264721219
COSMOS 2221             
1 22236U 92080A   26064.08964496  .00002459  00000+0  21569-3 0  9993
2 22236  82.5014 283.4884 0013613 203.1320 156.9291 14.96179779780108
SL-16 R/B               
1 22285U 92093B   26064.28728112 -.00000166  00000+0 -60805-4 0  9998
2 22285  71.0239  13.5066 0006344 298.3352  61.7131 14.15449250712535
COSMOS 2228             
1 22286U 92094A   26064.17588475  .00003433  00000+0  29420-3 0  9999
2 22286  82.5147 241.6332 0017076 320.7773  39.2211 14.97163868775381
